{
    "links": {
        "self": "http://www.neowsapp.com/rest/v1/neo/3716430?api_key=iIulBulltgU6a56xZRHN4H3l9WmuAYTsLGpBGhQ2"
    },
    "id": "3716430",
    "neo_reference_id": "3716430",
    "name": "(2015 HY)",
    "designation": "2015 HY",
    "nasa_jpl_url": "http://ssd.jpl.nasa.gov/sbdb.cgi?sstr=3716430",
    "absolute_magnitude_h": 20.9,
    "estimated_diameter": {
        "kilometers": {
            "estimated_diameter_min": 0.1756123185,
            "estimated_diameter_max": 0.3926810818
        },
        "meters": {
            "estimated_diameter_min": 175.6123184804,
            "estimated_diameter_max": 392.6810818086
        },
        "miles": {
            "estimated_diameter_min": 0.1091204019,
            "estimated_diameter_max": 0.2440006365
        },
        "feet": {
            "estimated_diameter_min": 576.1559189633,
            "estimated_diameter_max": 1288.3238004408
        }
    },
    "is_potentially_hazardous_asteroid": false,
    "close_approach_data": [
        {
            "close_approach_date": "2012-11-16",
            "close_approach_date_full": "2012-Nov-16 10:47",
            "epoch_date_close_approach": 1353062820000,
            "relative_velocity": {
                "kilometers_per_second": "6.0466675368",
                "kilometers_per_hour": "21768.0031325125",
                "miles_per_hour": "13525.7906130881"
            },
            "miss_distance": {
                "astronomical": "1.2941990269",
                "lunar": "503.4434214641",
                "kilometers": "193609417.780312703",
                "miles": "120303313.6699051814"
            },
            "orbiting_body": "Juptr"
        },
        {
            "close_approach_date": "2015-08-06",
            "close_approach_date_full": "2015-Aug-06 07:27",
            "epoch_date_close_approach": 1438846020000,
            "relative_velocity": {
                "kilometers_per_second": "17.804885059",
                "kilometers_per_hour": "64097.5862125451",
                "miles_per_hour": "39827.7473885672"
            },
            "miss_distance": {
                "astronomical": "0.4352569903",
                "lunar": "169.3149692267",
                "kilometers": "65113518.651490661",
                "miles": "40459664.3504706818"
            },
            "orbiting_body": "Earth"
        },
        {
            "close_approach_date": "2178-12-06",
            "close_approach_date_full": "2178-Dec-06 19:14",
            "epoch_date_close_approach": 6593253240000,
            "relative_velocity": {
                "kilometers_per_second": "4.9544973559",
                "kilometers_per_hour": "17836.1904811602",
                "miles_per_hour": "11082.7151353631"
            },
            "miss_distance": {
                "astronomical": "1.3669967912",
                "lunar": "531.7617517768",
                "kilometers": "204499808.260354744",
                "miles": "127070288.5254097072"
            },
            "orbiting_body": "Juptr"
        }
    ],
    "orbital_data": {
        "orbit_id": "9",
        "orbit_determination_date": "2017-04-06 08:34:22",
        "first_observation_date": "2015-04-16",
        "last_observation_date": "2015-05-07",
        "data_arc_in_days": 21,
        "observations_used": 28,
        "orbit_uncertainty": "7",
        "minimum_orbit_intersection": ".126438",
        "jupiter_tisserand_invariant": "3.059",
        "epoch_osculation": "2459000.5",
        "eccentricity": ".612904281981395",
        "semi_major_axis": "2.617381002606509",
        "inclination": "17.15357749986923",
        "ascending_node_longitude": "208.1749069736393",
        "orbital_period": "1546.674216326091",
        "perihelion_distance": "1.013176978532223",
        "perihelion_argument": "53.92240463538115",
        "aphelion_distance": "4.221585026680795",
        "perihelion_time": "2458758.704935734491",
        "mean_anomaly": "56.27961093341899",
        "mean_motion": ".2327574845432736",
        "equinox": "J2000",
        "orbit_class": {
            "orbit_class_type": "APO",
            "orbit_class_description": "Near-Earth asteroid orbits which cross the Earth’s orbit similar to that of 1862 Apollo",
            "orbit_class_range": "a (semi-major axis) > 1.0 AU; q (perihelion) < 1.017 AU"
        }
    },
    "is_sentry_object": false
}